ONEWEB-0311             
1 49097U 21075Y   24305.19898818 -.00000126  00000+0 -35868-3 0  9993
2 49097  87.9074 124.1897 0001252 100.2327 259.8945 13.17646760155401
ONEWEB-0312             
1 49098U 21075Z   24305.51791323  .00000036  00000+0  59709-4 0  9992
2 49098  87.9071 124.1576 0001075  80.3820 279.7433 13.17646998155420
ONEWEB-0313             
1 49099U 21075AA  24305.74765628  .00006421  00000+0  16870-1 0  9990
2 49099  87.9072 124.1257 0002682  89.8424 270.3013 13.16106416156446
ONEWEB-0314             
1 49100U 21075AB  24305.48923024  .00000120  00000+0  27657-3 0  9997
2 49100  87.9070 124.1188 0001071  83.8173 276.3081 13.17648192155382
ONEWEB-0315             
1 49101U 21075AC  24305.70306614 -.00000012  00000+0 -69090-4 0  9993
2 49101  87.8836 108.8457 0001439 106.3544 253.7743 13.12442022158321
ONEWEB-0316             
1 49102U 21075AD  24305.80527241 -.00000035  00000+0 -12090-3 0  9998
2 49102  87.9074  93.5483 0001439 100.3567 259.7727 13.18683543160013
ONEWEB-0317             
1 49103U 21075AE  24305.69658067  .00000160  00000+0  40954-3 0  9994
2 49103  87.8839 108.8586 0001901  79.1126 281.0216 13.12441829158330
ONEWEB-0318             
1 49104U 21075AF  24305.34686326  .00000032  00000+0  48437-4 0  9999
2 49104  87.9072  93.6300 0001382 103.3021 256.8266 13.18684818158904
